[
    {
        "Altitude(m)": 607911.025787928,
        "Argument of Periapsis(deg)": 0.0,
        "Eccentricity": 0.0,
        "Inclination(deg)": 60.0,
        "Latitude(deg)": -14.293038668191604,
        "Longitude(deg)": -81.55734704222164,
        "Mean Anomaly(deg)": -163.63640000000004,
        "RAAN(deg)": 190.0,
        "Satellite Name": "Test1 848",
        "Satellite Number": 848,
        "Semi-Major Axis(m)": 6980739.136638005,
        "Time(s)": 0
    },
    {
        "Altitude(m)": 608060.2599318702,
        "Argument of Periapsis(deg)": 0.00010418945913296404,
        "Eccentricity": 0.0,
        "Inclination(deg)": 60.0,
        "Latitude(deg)": -14.82669995491601,
        "Longitude(deg)": -81.26873726550997,
        "Mean Anomaly(deg)": -163.0162938545382,
        "RAAN(deg)": 189.99957995086027,
        "Satellite Name": "Test1 848",
        "Satellite Number": 848,
        "Semi-Major Axis(m)": 6980739.136638005,
        "Time(s)": 10
    },
    {
        "Altitude(m)": 608211.9242735585,
        "Argument of Periapsis(deg)": 0.0002083789182659281,
        "Eccentricity": 0.0,
        "Inclination(deg)": 60.0,
        "Latitude(deg)": -15.359845019121547,
        "Longitude(deg)": -80.97851868764589,
        "Mean Anomaly(deg)": -162.39618770907637,
        "RAAN(deg)": 189.99915990172053,
        "Satellite Name": "Test1 848",
        "Satellite Number": 848,
        "Semi-Major Axis(m)": 6980739.136638005,
        "Time(s)": 20
    },
    {
        "Altitude(m)": 608365.9707313342,
        "Argument of Periapsis(deg)": 0.00031256837739889213,
        "Eccentricity": 0.0,
        "Inclination(deg)": 60.0,
        "Latitude(deg)": -15.892452651602703,
        "Longitude(deg)": -80.68662384098435,
        "Mean Anomaly(deg)": -161.7760815636145,
        "RAAN(deg)": 189.9987398525808,
        "Satellite Name": "Test1 848",
        "Satellite Number": 848,
        "Semi-Major Axis(m)": 6980739.136638005,
        "Time(s)": 30
    },
    {
        "Altitude(m)": 608522.350026002,
        "Argument of Periapsis(deg)": 0.0004167578365318562,
        "Eccentricity": 0.0,
        "Inclination(deg)": 60.0,
        "Latitude(deg)": -16.42450131089129,
        "Longitude(deg)": -80.39298373886224,
        "Mean Anomaly(deg)": -161.15597541815268,
        "RAAN(deg)": 189.99831980344103,
        "Satellite Name": "Test1 848",
        "Satellite Number": 848,
        "Semi-Major Axis(m)": 6980739.136638005,
        "Time(s)": 40
    },
    {
        "Altitude(m)": 608681.011702144,
        "Argument of Periapsis(deg)": 0.0005209472956648203,
        "Eccentricity": 0.0,
        "Inclination(deg)": 60.0,
        "Latitude(deg)": -16.955969107236225,
        "Longitude(deg)": -80.09752884026977,
        "Mean Anomaly(deg)": -160.53586927269083,
        "RAAN(deg)": 189.9978997543013,
        "Satellite Name": "Test1 848",
        "Satellite Number": 848,
        "Semi-Major Axis(m)": 6980739.136638005,
        "Time(s)": 50
    },
    {
        "Altitude(m)": 608841.9041499844,
        "Argument of Periapsis(deg)": 0.0006251367547977843,
        "Eccentricity": 0.0,
        "Inclination(deg)": 60.0,
        "Latitude(deg)": -17.48683378610194,
        "Longitude(deg)": -79.80018850080988,
        "Mean Anomaly(deg)": -159.915763127229,
        "RAAN(deg)": 189.99747970516157,
        "Satellite Name": "Test1 848",
        "Satellite Number": 848,
        "Semi-Major Axis(m)": 6980739.136638005,
        "Time(s)": 60
    },
    {
        "Altitude(m)": 609004.9746278074,
        "Argument of Periapsis(deg)": 0.0007293262139307483,
        "Eccentricity": 0.0,
        "Inclination(deg)": 60.0,
        "Latitude(deg)": -18.017072711163838,
        "Longitude(deg)": -79.50089042279478,
        "Mean Anomaly(deg)": -159.2956569817672,
        "RAAN(deg)": 189.99705965602183,
        "Satellite Name": "Test1 848",
        "Satellite Number": 848,
        "Semi-Major Axis(m)": 6980739.136638005,
        "Time(s)": 70
    },
    {
        "Altitude(m)": 609170.1692849234,
        "Argument of Periapsis(deg)": 0.0008335156730637124,
        "Eccentricity": 0.0,
        "Inclination(deg)": 60.0,
        "Latitude(deg)": -18.54666284677602,
        "Longitude(deg)": -79.19956161733101,
        "Mean Anomaly(deg)": -158.67555083630538,
        "RAAN(deg)": 189.99663960688207,
        "Satellite Name": "Test1 848",
        "Satellite Number": 848,
        "Semi-Major Axis(m)": 6980739.136638005,
        "Time(s)": 80
    },
    {
        "Altitude(m)": 609337.4331851463,
        "Argument of Periapsis(deg)": 0.0009377051321966765,
        "Eccentricity": 0.0,
        "Inclination(deg)": 60.0,
        "Latitude(deg)": -19.075580739887258,
        "Longitude(deg)": -78.89612785262267,
        "Mean Anomaly(deg)": -158.05544469084356,
        "RAAN(deg)": 189.99621955774234,
        "Satellite Name": "Test1 848",
        "Satellite Number": 848,
        "Semi-Major Axis(m)": 6980739.136638005,
        "Time(s)": 90
    },
    {
        "Altitude(m)": 609506.7103308022,
        "Argument of Periapsis(deg)": 0.0010418945913296407,
        "Eccentricity": 0.0,
        "Inclination(deg)": 60.0,
        "Latitude(deg)": -19.603802501380297,
        "Longitude(deg)": -78.59051310134544,
        "Mean Anomaly(deg)": -157.43533854538174,
        "RAAN(deg)": 189.99579950860257,
        "Satellite Name": "Test1 848",
        "Satellite Number": 848,
        "Semi-Major Axis(m)": 6980739.136638005,
        "Time(s)": 100
    },
    {
        "Altitude(m)": 609677.9436872493,
        "Argument of Periapsis(deg)": 0.0011460840504626045,
        "Eccentricity": 0.0,
        "Inclination(deg)": 60.0,
        "Latitude(deg)": -20.131303786807646,
        "Longitude(deg)": -78.28264049994897,
        "Mean Anomaly(deg)": -156.81523239991986,
        "RAAN(deg)": 189.9953794594628,
        "Satellite Name": "Test1 848",
        "Satellite Number": 848,
        "Semi-Major Axis(m)": 6980739.136638005,
        "Time(s)": 110
    },
    {
        "Altitude(m)": 609851.0752078523,
        "Argument of Periapsis(deg)": 0.0012502735095955685,
        "Eccentricity": 0.0,
        "Inclination(deg)": 60.0,
        "Latitude(deg)": -20.658059776498174,
        "Longitude(deg)": -77.97243179411956,
        "Mean Anomaly(deg)": -156.19512625445805,
        "RAAN(deg)": 189.9949594103231,
        "Satellite Name": "Test1 848",
        "Satellite Number": 848,
        "Semi-Major Axis(m)": 6980739.136638005,
        "Time(s)": 120
    },
    {
        "Altitude(m)": 610026.04585948,
        "Argument of Periapsis(deg)": 0.0013544629687285324,
        "Eccentricity": 0.0,
        "Inclination(deg)": 60.0,
        "Latitude(deg)": -21.18404515500615,
        "Longitude(deg)": -77.65980678326517,
        "Mean Anomaly(deg)": -155.5750201089962,
        "RAAN(deg)": 189.99453936118337,
        "Satellite Name": "Test1 848",
        "Satellite Number": 848,
        "Semi-Major Axis(m)": 6980739.136638005,
        "Time(s)": 130
    },
    {
        "Altitude(m)": 610202.7956484396,
        "Argument of Periapsis(deg)": 0.0014586524278614966,
        "Eccentricity": 0.0,
        "Inclination(deg)": 60.0,
        "Latitude(deg)": -21.70923408987499,
        "Longitude(deg)": -77.3446842768831,
        "Mean Anomaly(deg)": -154.95491396353438,
        "RAAN(deg)": 189.9941193120436,
        "Satellite Name": "Test1 848",
        "Satellite Number": 848,
        "Semi-Major Axis(m)": 6980739.136638005,
        "Time(s)": 140
    },
    {
        "Altitude(m)": 610381.2636468493,
        "Argument of Periapsis(deg)": 0.0015628418869944607,
        "Eccentricity": 0.0,
        "Inclination(deg)": 60.0,
        "Latitude(deg)": -22.233600209686237,
        "Longitude(deg)": -77.02698153705377,
        "Mean Anomaly(deg)": -154.3348078180725,
        "RAAN(deg)": 189.99369926290385,
        "Satellite Name": "Test1 848",
        "Satellite Number": 848,
        "Semi-Major Axis(m)": 6980739.136638005,
        "Time(s)": 150
    },
    {
        "Altitude(m)": 610561.3880194888,
        "Argument of Periapsis(deg)": 0.0016670313461274247,
        "Eccentricity": 0.0,
        "Inclination(deg)": 60.0,
        "Latitude(deg)": -22.757116581363416,
        "Longitude(deg)": -76.70661371992801,
        "Mean Anomaly(deg)": -153.7147016726107,
        "RAAN(deg)": 189.99327921376414,
        "Satellite Name": "Test1 848",
        "Satellite Number": 848,
        "Semi-Major Axis(m)": 6980739.136638005,
        "Time(s)": 160
    },
    {
        "Altitude(m)": 610743.1060510399,
        "Argument of Periapsis(deg)": 0.0017712208052603888,
        "Eccentricity": 0.0,
        "Inclination(deg)": 60.0,
        "Latitude(deg)": -23.2797556867011,
        "Longitude(deg)": -76.38349482908018,
        "Mean Anomaly(deg)": -153.0945955271489,
        "RAAN(deg)": 189.9928591646244,
        "Satellite Name": "Test1 848",
        "Satellite Number": 848,
        "Semi-Major Axis(m)": 6980739.136638005,
        "Time(s)": 170
    },
    {
        "Altitude(m)": 610926.3541737447,
        "Argument of Periapsis(deg)": 0.001875410264393353,
        "Eccentricity": 0.0,
        "Inclination(deg)": 60.0,
        "Latitude(deg)": -23.801489398086478,
        "Longitude(deg)": -76.05753715497968,
        "Mean Anomaly(deg)": -152.47448938168705,
        "RAAN(deg)": 189.99243911548464,
        "Satellite Name": "Test1 848",
        "Satellite Number": 848,
        "Semi-Major Axis(m)": 6980739.136638005,
        "Time(s)": 180
    },
    {
        "Altitude(m)": 611111.0679954528,
        "Argument of Periapsis(deg)": 0.0019795997235263173,
        "Eccentricity": 0.0,
        "Inclination(deg)": 60.0,
        "Latitude(deg)": -24.322288953380795,
        "Longitude(deg)": -75.72865071346196,
        "Mean Anomaly(deg)": -151.85438323622526,
        "RAAN(deg)": 189.99201906634488,
        "Satellite Name": "Test1 848",
        "Satellite Number": 848,
        "Semi-Major Axis(m)": 6980739.136638005,
        "Time(s)": 190
    }
]